{"fetched_at":"2026-07-08T17:59:23.476Z","source":"https://celestrak.org/NORAD/elements/gp.php?GROUP=kuiper&FORMAT=JSON","constellation":"kuiper","records":[{"OBJECT_NAME":"KUIPER-00191","OBJECT_ID":"2025-301L","EPOCH":"2026-07-08T11:53:39.435648","CLASSIFICATION_TYPE":"U","MEAN_MOTION":14.79924044,"ECCENTRICITY":0.0000553,"INCLINATION":51.8997,"RA_OF_ASC_NODE":258.9456,"ARG_OF_PERICENTER":102.836,"MEAN_ANOMALY":257.2664,"EPHEMERIS_TYPE":0,"NORAD_CAT_ID":67143,"ELEMENT_SET_NO":999,"REV_AT_EPOCH":3154,"BSTAR":0.00034252,"MEAN_MOTION_DOT":0.0000239,"MEAN_MOTION_DDOT":0},{"OBJECT_NAME":"KUIPER-00196","OBJECT_ID":"2025-301M","EPOCH":"2026-07-08T11:41:23.390592","CLASSIFICATION_TYPE":"U","MEAN_MOTION":14.76340378,"ECCENTRICITY":0.0000924,"INCLINATION":51.8978,"RA_OF_ASC_NODE":215.1986,"ARG_OF_PERICENTER":327.8781,"MEAN_ANOMALY":32.2123,"EPHEMERIS_TYPE":0,"NORAD_CAT_ID":67144,"ELEMENT_SET_NO":999,"REV_AT_EPOCH":3212,"BSTAR":0.00023761,"MEAN_MOTION_DOT":0.0000145,"MEAN_MOTION_DDOT":0},{"OBJECT_NAME":"KUIPER-00204","OBJECT_ID":"2025-301N","EPOCH":"2026-07-08T11:47:42.349632","CLASSIFICATION_TYPE":"U","MEAN_MOTION":14.79918331,"ECCENTRICITY":0.0000177,"INCLINATION":51.9004,"RA_OF_ASC_NODE":231.4476,"ARG_OF_PERICENTER":58.8088,"MEAN_ANOMALY":301.2892,"EPHEMERIS_TYPE":0,"NORAD_CAT_ID":67145,"ELEMENT_SET_NO":999,"REV_AT_EPOCH":3201,"BSTAR":0.00027723,"MEAN_MOTION_DOT":0.00001892,"MEAN_MOTION_DDOT":0},{"OBJECT_NAME":"KUIPER-00210","OBJECT_ID":"2025-301P","EPOCH":"2026-07-08T11:05:01.391424","CLASSIFICATION_TYPE":"U","MEAN_MOTION":14.7992069,"ECCENTRICITY":0.0000536,"INCLINATION":51.899,"RA_OF_ASC_NODE":259.0481,"ARG_OF_PERICENTER":89.1431,"MEAN_ANOMALY":270.9593,"EPHEMERIS_TYPE":0,"NORAD_CAT_ID":67146,"ELEMENT_SET_NO":999,"REV_AT_EPOCH":3168,"BSTAR":-0.000010928,"MEAN_MOTION_DOT":-0.00000304,"MEAN_MOTION_DDOT":0},{"OBJECT_NAME":"KUIPER-00221","OBJECT_ID":"2025-301Q","EPOCH":"2026-07-08T11:41:59.785728","CLASSIFICATION_TYPE":"U","MEAN_MOTION":14.79928619,"ECCENTRICITY":0.000064,"INCLINATION":51.9008,"RA_OF_ASC_NODE":266.4584,"ARG_OF_PERICENTER":95.9517,"MEAN_ANOMALY":264.1518,"EPHEMERIS_TYPE":0,"NORAD_CAT_ID":67147,"ELEMENT_SET_NO":999,"REV_AT_EPOCH":3141,"BSTAR":0.0002895,"MEAN_MOTION_DOT":0.00001986,"MEAN_MOTION_DDOT":0},{"OBJECT_NAME":"KUIPER-00232","OBJECT_ID":"2025-301R","EPOCH":"2026-07-08T04:47:42.503136","CLASSIFICATION_TYPE":"U","MEAN_MOTION":14.79925957,"ECCENTRICITY":0.000053,"INCLINATION":51.8981,"RA_OF_ASC_NODE":252.755,"ARG_OF_PERICENTER":98.1524,"MEAN_ANOMALY":261.9498,"EPHEMERIS_TYPE":0,"NORAD_CAT_ID":67148,"ELEMENT_SET_NO":999,"REV_AT_EPOCH":3157,"BSTAR":0.00025275,"MEAN_MOTION_DOT":0.00001706,"MEAN_MOTION_DDOT":0},{"OBJECT_NAME":"KUIPER-00241","OBJECT_ID":"2025-301S","EPOCH":"2026-07-08T11:49:40.855008","CLASSIFICATION_TYPE":"U","MEAN_MOTION":14.79963811,"ECCENTRICITY":0.0001658,"INCLINATION":51.9033,"RA_OF_ASC_NODE":261.46,"ARG_OF_PERICENTER":107.6982,"MEAN_ANOMALY":252.4162,"EPHEMERIS_TYPE":0,"NORAD_CAT_ID":67149,"ELEMENT_SET_NO":999,"REV_AT_EPOCH":3181,"BSTAR":-0.000032668,"MEAN_MOTION_DOT":-0.00000471,"MEAN_MOTION_DDOT":0},{"OBJECT_NAME":"KUIPER-00245","OBJECT_ID":"2025-301T","EPOCH":"2026-07-07T06:27:42.974496","CLASSIFICATION_TYPE":"U","MEAN_MOTION":14.79926114,"ECCENTRICITY":0.00007318,"INCLINATION":51.9018,"RA_OF_ASC_NODE":274.3782,"ARG_OF_PERICENTER":114.0596,"MEAN_ANOMALY":246.0443,"EPHEMERIS_TYPE":0,"NORAD_CAT_ID":67150,"ELEMENT_SET_NO":999,"REV_AT_EPOCH":3119,"BSTAR":0.00037421699,"MEAN_MOTION_DOT":0.00002632,"MEAN_MOTION_DDOT":0},{"OBJECT_NAME":"KUIPER-00246","OBJECT_ID":"2025-301U","EPOCH":"2026-07-08T11:12:47.261088","CLASSIFICATION_TYPE":"U","MEAN_MOTION":14.79921318,"ECCENTRICITY":0.0000748,"INCLINATION":51.8995,"RA_OF_ASC_NODE":254.0362,"ARG_OF_PERICENTER":104.1215,"MEAN_ANOMALY":255.983,"EPHEMERIS_TYPE":0,"NORAD_CAT_ID":67151,"ELEMENT_SET_NO":999,"REV_AT_EPOCH":3160,"BSTAR":-2.4968e-7,"MEAN_MOTION_DOT":-0.00000223,"MEAN_MOTION_DDOT":0},{"OBJECT_NAME":"KUIPER-00247","OBJECT_ID":"2025-301V","EPOCH":"2026-07-08T09:51:03.636000","CLASSIFICATION_TYPE":"U","MEAN_MOTION":14.79924286,"ECCENTRICITY":0.0000496,"INCLINATION":51.8945,"RA_OF_ASC_NODE":244.2592,"ARG_OF_PERICENTER":93.2659,"MEAN_ANOMALY":266.836,"EPHEMERIS_TYPE":0,"NORAD_CAT_ID":67152,"ELEMENT_SET_NO":999,"REV_AT_EPOCH":3171,"BSTAR":-0.000070395,"MEAN_MOTION_DOT":-0.00000758,"MEAN_MOTION_DDOT":0},{"OBJECT_NAME":"KUIPER-00248","OBJECT_ID":"2025-301W","EPOCH":"2026-07-08T11:55:38.633952","CLASSIFICATION_TYPE":"U","MEAN_MOTION":14.79884841,"ECCENTRICITY":0.0000899,"INCLINATION":51.8979,"RA_OF_ASC_NODE":226.5055,"ARG_OF_PERICENTER":66.6753,"MEAN_ANOMALY":293.4304,"EPHEMERIS_TYPE":0,"NORAD_CAT_ID":67153,"ELEMENT_SET_NO":999,"REV_AT_EPOCH":3213,"BSTAR":0.00027025,"MEAN_MOTION_DOT":0.00001837,"MEAN_MOTION_DDOT":0},{"OBJECT_NAME":"KUIPER-00249","OBJECT_ID":"2025-301X","EPOCH":"2026-07-08T09:54:58.211136","CLASSIFICATION_TYPE":"U","MEAN_MOTION":14.79925267,"ECCENTRICITY":0.0000541,"INCLINATION":51.8978,"RA_OF_ASC_NODE":241.8036,"ARG_OF_PERICENTER":105.3074,"MEAN_ANOMALY":254.7948,"EPHEMERIS_TYPE":0,"NORAD_CAT_ID":67154,"ELEMENT_SET_NO":999,"REV_AT_EPOCH":3174,"BSTAR":0.00022047,"MEAN_MOTION_DOT":0.0000146,"MEAN_MOTION_DDOT":0},{"OBJECT_NAME":"KUIPER-00250","OBJECT_ID":"2025-301Y","EPOCH":"2026-07-06T09:42:57.432096","CLASSIFICATION_TYPE":"U","MEAN_MOTION":14.79915411,"ECCENTRICITY":0.00006426,"INCLINATION":51.8982,"RA_OF_ASC_NODE":265.6384,"ARG_OF_PERICENTER":94.1491,"MEAN_ANOMALY":265.9545,"EPHEMERIS_TYPE":0,"NORAD_CAT_ID":67155,"ELEMENT_SET_NO":999,"REV_AT_EPOCH":3127,"BSTAR":0.00041960045,"MEAN_MOTION_DOT":0.00002978,"MEAN_MOTION_DDOT":0},{"OBJECT_NAME":"KUIPER-00251","OBJECT_ID":"2025-301Z","EPOCH":"2026-07-08T10:39:42.229728","CLASSIFICATION_TYPE":"U","MEAN_MOTION":14.79921738,"ECCENTRICITY":0.0000309,"INCLINATION":51.9005,"RA_OF_ASC_NODE":244.1872,"ARG_OF_PERICENTER":47.6025,"MEAN_ANOMALY":312.4963,"EPHEMERIS_TYPE":0,"NORAD_CAT_ID":67156,"ELEMENT_SET_NO":999,"REV_AT_EPOCH":3190,"BSTAR":-0.0000059284,"MEAN_MOTION_DOT":-0.00000266,"MEAN_MOTION_DDOT":0},{"OBJECT_NAME":"KUIPER-00252","OBJECT_ID":"2025-301AA","EPOCH":"2026-07-08T10:35:48.408864","CLASSIFICATION_TYPE":"U","MEAN_MOTION":14.79928037,"ECCENTRICITY":0.0000615,"INCLINATION":51.8991,"RA_OF_ASC_NODE":246.6504,"ARG_OF_PERICENTER":101.1344,"MEAN_ANOMALY":258.9688,"EPHEMERIS_TYPE":0,"NORAD_CAT_ID":67157,"ELEMENT_SET_NO":999,"REV_AT_EPOCH":3168,"BSTAR":0.00011478,"MEAN_MOTION_DOT":0.00000654,"MEAN_MOTION_DDOT":0},{"OBJECT_NAME":"KUIPER-00261","OBJECT_ID":"2025-301AB","EPOCH":"2026-07-08T11:08:55.284000","CLASSIFICATION_TYPE":"U","MEAN_MOTION":14.79920165,"ECCENTRICITY":0.0000629,"INCLINATION":51.9015,"RA_OF_ASC_NODE":256.6011,"ARG_OF_PERICENTER":103.5566,"MEAN_ANOMALY":256.5466,"EPHEMERIS_TYPE":0,"NORAD_CAT_ID":67158,"ELEMENT_SET_NO":999,"REV_AT_EPOCH":3154,"BSTAR":0.00033006,"MEAN_MOTION_DOT":0.00002295,"MEAN_MOTION_DDOT":0}]}
