KUIPER-00191            
1 67143U 25301L   26189.49559532  .00002390  00000+0  34252-3 0  9992
2 67143  51.8997 258.9456 0000553 102.8360 257.2664 14.79924044 31543
KUIPER-00196            
1 67144U 25301M   26189.48707628  .00001450  00000+0  23761-3 0  9992
2 67144  51.8978 215.1986 0000924 327.8781  32.2123 14.76340378 32129
KUIPER-00204            
1 67145U 25301N   26189.49146238  .00001892  00000+0  27723-3 0  9990
2 67145  51.9004 231.4476 0000177  58.8088 301.2892 14.79918331 32010
KUIPER-00210            
1 67146U 25301P   26189.46182166 -.00000304  00000+0 -10928-4 0  9997
2 67146  51.8990 259.0481 0000536  89.1431 270.9593 14.79920690 31687
KUIPER-00221            
1 67147U 25301Q   26189.48749752  .00001986  00000+0  28950-3 0  9998
2 67147  51.9008 266.4584 0000640  95.9517 264.1518 14.79928619 31413
KUIPER-00232            
1 67148U 25301R   26189.19979749  .00001706  00000+0  25275-3 0  9995
2 67148  51.8981 252.7550 0000530  98.1524 261.9498 14.79925957 31576
KUIPER-00241            
1 67149U 25301S   26189.49283397 -.00000471  00000+0 -32668-4 0  9991
2 67149  51.9033 261.4600 0001658 107.6982 252.4162 14.79963811 31816
KUIPER-00245            
1 67150U 25301T   26188.26924739  .00002632  00000+0  37422-3 0  9990
2 67150  51.9018 274.3782 0000731 114.0596 246.0443 14.79926114 31196
KUIPER-00246            
1 67151U 25301U   26189.46721367 -.00000223  00000+0 -24968-6 0  9996
2 67151  51.8995 254.0362 0000748 104.1215 255.9830 14.79921318 31601
KUIPER-00247            
1 67152U 25301V   26189.41045875 -.00000758  00000+0 -70395-4 0  9991
2 67152  51.8945 244.2592 0000496  93.2659 266.8360 14.79924286 31711
KUIPER-00248            
1 67153U 25301W   26189.49697493  .00001837  00000+0  27025-3 0  9997
2 67153  51.8979 226.5055 0000899  66.6753 293.4304 14.79884841 32135
KUIPER-00249            
1 67154U 25301X   26189.41317374  .00001460  00000+0  22047-3 0  9998
2 67154  51.8978 241.8036 0000541 105.3074 254.7948 14.79925267 31743
KUIPER-00250            
1 67155U 25301Y   26187.40483139  .00002978  00000+0  41960-3 0  9999
2 67155  51.8982 265.6384 0000642  94.1491 265.9545 14.79915411 31274
KUIPER-00251            
1 67156U 25301Z   26189.44423877 -.00000266  00000+0 -59284-5 0  9999
2 67156  51.9005 244.1872 0000309  47.6025 312.4963 14.79921738 31903
KUIPER-00252            
1 67157U 25301AA  26189.44153251  .00000654  00000+0  11478-3 0  9996
2 67157  51.8991 246.6504 0000615 101.1344 258.9688 14.79928037 31688
KUIPER-00261            
1 67158U 25301AB  26189.46452875  .00002295  00000+0  33006-3 0  9997
2 67158  51.9015 256.6011 0000629 103.5566 256.5466 14.79920165 31545
